#cP2022  3  2  6  0  0.00000000     576 d+D   IGb14 EXT AIUB
## 2199 280800.00000000   300.00000000 59640 0.2500000000000
+   77   G01G02G03G04G05G06G07G08G09G10G11G12G13G14G15G16G17
+        G18G19G20G21G22G23G24G25G26G27G28G29G30G31G32R01R02
+        R03R04R05R07R08R09R11R12R13R14R15R17R18R19R20R21R22
+        R24E01E02E03E04E05E07E08E09E10E11E12E13E14E15E18E19
+        E21E25E26E27E30E31E33E34E36  0  0  0  0  0  0  0  0
++         7  7  7  8  7  7  7  9  7  6  8  7  7  7  8  8  7
++         8  8  7  8  6  7  6  7  7  7  7  7  6  7  6  9  7
++         8  8  7  8  8  7  6  7  7  7  7  8  8  8  9  8  8
++         8  6  7  6  7  6  6  6  7  7  8  7  6  7  7  8  8
++         7  7  6  7  6  7  7  7  7  0  0  0  0  0  0  0  0
%c M  cc GPS ccc cccc cccc cccc cccc ccccc ccccc ccccc ccccc
%c cc cc ccc ccc cccc cccc cccc cccc ccccc ccccc ccccc ccccc
%f  1.2500000  1.025000000  0.00000000000  0.000000000000000
%f  0.0000000  0.000000000  0.00000000000  0.000000000000000
%i    0    0    0    0      0      0      0      0         0
%i    0    0    0    0      0      0      0      0         0
/* Center for Orbit Determination in Europe (CODE)          
/* Ultra-rapid GRE orbits starting year-day 22061 06 hour   
/* Observed/predicted: 25/23 hours (data used up to 062G)   
/* PCV:IGS14      OL/AL:FES2014b NONE     YN ORB:CoN CLK:BRD
*  2022  3  2 17 20  0.00000000
PG01   5151.961049 -17314.994166 -19624.544714    418.576164
PG02 -21121.790812  16047.025988   3024.728556   -651.718911
PG03  -5482.692612 -18303.046028 -18598.029816   -145.418278
PG04      0.000000      0.000000      0.000000 999999.999999
PG05 -11031.866190  10979.134751  21377.005483    -73.265139
PG06 -23488.895337   3611.106499 -11872.602858    218.246750
PG07 -12008.848469 -10963.822797  21454.004791    313.762882
PG08   6458.645907 -23946.043708   8972.298285    -58.256941
PG09  -8055.815947 -22364.282184  11745.787526   -351.782772
PG10  23827.763346  11266.585338  -4235.201728   -335.224271
PG11 -23256.359936  12617.844712   2253.697502    -73.393435
PG12   1071.062510  17732.983605 -20051.509173   -178.883798
PG13 -12894.223469  18164.686839  14188.241800    270.262238
PG14 -23206.804375 -12439.587452  -3776.072717    -89.766021
PG15  -3468.639237  24853.931968   7789.123923    -79.840115
PG16  15434.960744  -6056.325304  20582.743036   -475.946640
PG17 -13173.301777  -9002.117961 -20793.908640    582.019020
PG18  11431.856613  10659.016472  21483.780238    228.818316
PG19 -14971.953814   -623.728965 -22182.973967    125.798483
PG20 -19132.349143   5677.856264  17407.283835    516.472784
PG21  14316.088323 -18550.833627 -11186.529469    158.844844
PG22  15191.059119  -3208.832224 -21125.112590    221.454152
PG23  19687.548698  16660.787217   6544.585425     -3.376082
PG24  -8094.601028  19444.277604 -16229.500049    271.268480
PG25  14126.139705  19016.855179 -12576.896478    292.837837
PG26  23206.833942   1866.271292  12978.714946    187.575258
PG27  12291.541497 -15422.898384  17394.445488    139.922573
PG28 -22526.714848  -7367.568801 -11233.827758    389.146497
PG29   4387.522253  24030.433603  10313.119326   -486.584205
PG30 -19342.399763  -4759.667712  17754.998328   -516.472694
PG31  24592.158407  -4882.400198  -9572.300402   -167.127113
PG32  14945.796092   4293.726419 -21415.711585    -77.232122
PR01 -14140.497794 -19089.715096   9311.648911      7.152557
PR02 -12275.072666  -1745.650481  22327.074182    511.267253
PR03  -3537.593312  15338.653555  20137.228967     52.415828
PR04   7046.175064  23557.929108   6837.663348    130.113467
PR05  13673.280151  18935.474826 -10271.045595     88.673325
PR07   3100.453473 -15830.521383 -19701.557018     32.240738
PR08  -7204.563973 -23539.029600  -6574.530356    -63.810082
PR09  24866.392237   -757.075490   5480.199989     42.249291
PR11  -3991.760239 -11082.768006  22631.444533     44.513112
PR12 -21060.966192  -7767.287526  12111.282863     17.327369
PR13 -25132.780671     46.403082  -4365.351061    -18.956962
PR14 -14140.750390   8250.282525 -19560.078156     74.948361
PR15   4690.946014  11243.671889 -22398.087256     97.824352
PR17 -15274.765633  20386.755853   -942.246915    506.214744
PR18  -6119.543350  19719.309908  15036.829180    109.017663
PR19   5334.691665   9734.449646  22968.694130   -180.093907
PR20  16459.699239  -8521.429538  17510.107168    -65.924872
PR21  14868.097430 -20733.003359   -512.410358   -282.145919
PR22   5531.813542 -19217.287085 -15779.943521   -168.071420
PR24 -16724.562374   9332.182988 -16826.153275     82.554926
PE01 -27626.181166 -10077.746502  -3320.813779   -589.140291
PE02  27660.338572   9993.042557   3454.126270    283.657409
PE03  16955.672781   8627.310619 -22675.982834   -533.224711
PE04 -14291.621526  13527.261261  22119.688236   -975.966010
PE05   9699.137203  26153.498688  -9904.771295   -204.119878
PE07   3086.839395 -28207.125879  -8431.147489   -644.340953
PE08  13949.426040 -13988.136826 -22044.017059   -488.448921
PE09  -2792.454345  28278.612827   8272.974351   5342.233625
PE10 -20460.282521  20368.100460   6537.753237   -498.247670
PE11 -12491.266780  21782.932529  15685.597761   4328.776177
PE12 -24914.422562  15694.679548  -3144.369599   4733.367234
PE13  13042.438495 -21787.010697 -15193.650848    426.966701
PE14  -2374.033808 -30143.713912  -6154.580586  -1764.177336
PE15  24893.687059 -15657.688979   3322.570973    760.174100
PE18  -5746.456496  24899.821313  -3685.735557  -1730.964281
PE19 -16437.014933 -11365.664083  21841.236092   -652.089516
PE21 -18302.996356 -18632.766636  13911.519216   -720.214873
PE25  18098.947413  18696.310342 -14120.319260   -565.417947
PE26  -7430.384415 -14588.145285 -24652.488327   -866.228994
PE27   2117.657044 -17033.137582  24110.359514   -244.154015
PE30  21904.953545  -4557.747570  19376.522839   -316.406682
PE31 -21093.891753   5435.743632 -20035.181044   -492.946594
PE33 -22022.509760    346.638938 -19774.494549   -458.937113
PE34  22123.987006   -551.041075  19656.070704   -504.630435
PE36   6378.632660  15088.230469  24661.894623   -339.687958
EOF
